H1 CPF  1  DLR 2022 07 08 10  6892 technosat            
H2  1704205 6203    42829 2022 07 08 00 00 00 2022 07 15 00 00 00    60 1 1  0 0 0
H9
10 0 59772  79200.000000  0      -2564358.276       2673912.819       5904512.983
10 0 59772  79260.000000  0      -2210877.977       2485469.212       6125623.634
10 0 59772  79320.000000  0      -1849821.168       2283460.731       6320820.836
10 0 59772  79380.000000  0      -1482822.029       2068679.855       6489288.051
10 0 59772  79440.000000  0      -1111531.159       1841986.196       6630321.372
10 0 59772  79500.000000  0       -737608.258       1604303.006       6743332.231
10 0 59772  79560.000000  0       -362714.769       1356613.365       6827849.658
10 0 59772  79620.000000  0         11493.430       1099956.125       6883522.043
10 0 59772  79680.000000  0        383373.253        835421.566       6910118.439
10 0 59772  79740.000000  0        751301.501        564146.826       6907529.389
10 0 59772  79800.000000  0       1113681.825        287311.075       6875767.326
10 0 59772  79860.000000  0       1468951.540          6130.481       6814966.515
10 0 59772  79920.000000  0       1815588.272       -278147.066       6725382.553
10 0 59772  79980.000000  0       2152116.397       -564247.447       6607391.370
10 0 59772  80040.000000  0       2477113.244       -850875.915       6461487.772
10 0 59772  80100.000000  0       2789215.118      -1136722.839       6288283.574
10 0 59772  80160.000000  0       3087123.056      -1420469.638       6088505.257
10 0 59772  80220.000000  0       3369608.294      -1700794.832       5862991.118
10 0 59772  80280.000000  0       3635517.394      -1976380.138       5612687.940
10 0 59772  80340.000000  0       3883777.037      -2245916.599       5338647.259
10 0 59772  80400.000000  0       4113398.472      -2508110.778       5042021.224
10 0 59772  80460.000000  0       4323481.614      -2761690.996       4724058.020
10 0 59772  80520.000000  0       4513218.760      -3005413.543       4386096.840
10 0 59772  80580.000000  0       4681897.881      -3238068.835       4029562.427
10 0 59772  80640.000000  0       4828905.507      -3458487.468       3655959.232
10 0 59772  80700.000000  0       4953729.164      -3665546.154       3266865.147
10 0 59772  80760.000000  0       5055959.326      -3858173.476       2863924.871
10 0 59772  80820.000000  0       5135290.826      -4035355.457       2448842.952
10 0 59772  80880.000000  0       5191523.785      -4196140.906       2023376.573
10 0 59772  80940.000000  0       5224564.059      -4339646.540       1589328.062
10 0 59772  81000.000000  0       5234423.184      -4465061.789       1148537.137
10 0 59772  81060.000000  0       5221217.814      -4571653.272        702872.988
10 0 59772  81120.000000  0       5185168.649      -4658768.977        254226.181
10 0 59772  81180.000000  0       5126598.817      -4725842.036       -195499.578
10 0 59772  81240.000000  0       5045931.813      -4772394.052       -644395.741
10 0 59772  81300.000000  0       4943688.924      -4798038.033      -1090557.265
10 0 59772  81360.000000  0       4820486.136      -4802480.879      -1532090.932
10 0 59772  81420.000000  0       4677030.636      -4785525.405      -1967123.584
10 0 59772  81480.000000  0       4514116.883      -4747071.882      -2393810.282
10 0 59772  81540.000000  0       4332622.239      -4687119.101      -2810342.292
10 0 59772  81600.000000  0       4133502.241      -4605764.990      -3214954.889
10 0 59772  81660.000000  0       3917785.538      -4503206.698      -3605934.940
10 0 59772  81720.000000  0       3686568.527      -4379740.203      -3981628.219
10 0 59772  81780.000000  0       3441009.688      -4235759.446      -4340446.429
10 0 59772  81840.000000  0       3182323.655      -4071754.988      -4680873.894
10 0 59772  81900.000000  0       2911775.070      -3888312.203      -5001473.849
10 0 59772  81960.000000  0       2630672.287      -3686109.035      -5300894.345
10 0 59772  82020.000000  0       2340360.986      -3465913.347      -5577873.707
10 0 59772  82080.000000  0       2042217.732      -3228579.905      -5831245.655
10 0 59772  82140.000000  0       1737643.413      -2975046.966      -6059944.036
10 0 59772  82200.000000  0       1428056.624      -2706332.495      -6263007.152
10 0 59772  82260.000000  0       1114887.014      -2423529.936      -6439581.627
10 0 59772  82320.000000  0        799568.670      -2127803.637      -6588925.770
10 0 59772  82380.000000  0        483533.585      -1820383.978      -6710412.441
10 0 59772  82440.000000  0        168205.205      -1502562.222      -6803531.465
10 0 59772  82500.000000  0       -145007.910      -1175685.076      -6867891.577
10 0 59772  82560.000000  0       -454718.242       -841149.028      -6903221.916
10 0 59772  82620.000000  0       -759565.390       -500394.455      -6909373.114
10 0 59772  82680.000000  0      -1058222.011       -154899.494      -6886317.887
10 0 59772  82740.000000  0      -1349399.547        193826.284      -6834151.120
10 0 59772  82800.000000  0      -1631853.727        544248.356      -6753089.534
10 0 59772  82860.000000  0      -1904389.831        894813.924      -6643470.899
10 0 59772  82920.000000  0      -2165867.694       1243958.733      -6505752.741
10 0 59772  82980.000000  0      -2415206.443       1590113.929      -6340510.611
10 0 59772  83040.000000  0      -2651389.027       1931713.024      -6148435.954
10 0 59772  83100.000000  0      -2873466.429       2267198.992      -5930333.469
10 0 59772  83160.000000  0      -3080561.538       2595031.387      -5687118.020
10 0 59772  83220.000000  0      -3271872.753       2913693.456      -5419811.099
10 0 59772  83280.000000  0      -3446677.256       3221699.254      -5129536.778
10 0 59772  83340.000000  0      -3604333.907       3517600.678      -4817517.193
10 0 59772  83400.000000  0      -3744285.740       3799994.411      -4485067.573
10 0 59772  83460.000000  0      -3866062.034       4067528.720      -4133590.833
10 0 59772  83520.000000  0      -3969279.951       4318910.061      -3764571.769
10 0 59772  83580.000000  0      -4053645.735       4552909.491      -3379570.919
10 0 59772  83640.000000  0      -4118955.578       4768368.873      -2980218.071
10 0 59772  83700.000000  0      -4165096.041       4964206.768      -2568205.339
10 0 59772  83760.000000  0      -4192044.021       5139423.996      -2145279.990
10 0 59772  83820.000000  0      -4199866.292       5293108.919      -1713236.979
10 0 59772  83880.000000  0      -4188718.616       5424442.352      -1273911.181
10 0 59772  83940.000000  0      -4158844.365       5532702.060       -829169.353
10 0 59772  84000.000000  0      -4110572.619       5617266.665       -380901.885
10 0 59772  84060.000000  0      -4044315.967       5677619.049         68985.362
10 0 59772  84120.000000  0      -3960567.888       5713349.441        518579.438
10 0 59772  84180.000000  0      -3859899.647       5724157.897        965968.764
10 0 59772  84240.000000  0      -3742956.893       5709856.235       1409251.563
10 0 59772  84300.000000  0      -3610455.853       5670369.434       1846544.279
10 0 59772  84360.000000  0      -3463179.101       5605736.384       2275989.885
10 0 59772  84420.000000  0      -3301971.061       5516110.068       2695765.940
10 0 59772  84480.000000  0      -3127733.248       5401757.194       3104092.457
10 0 59772  84540.000000  0      -2941419.313       5263057.328       3499239.496
10 0 59772  84600.000000  0      -2744029.864       5100501.524       3879534.580
10 0 59772  84660.000000  0      -2536607.077       4914690.358       4243369.794
10 0 59772  84720.000000  0      -2320229.202       4706331.467       4589208.523
10 0 59772  84780.000000  0      -2096004.975       4476236.611       4915591.859
10 0 59772  84840.000000  0      -1865067.930       4225318.248       5221144.680
10 0 59772  84900.000000  0      -1628570.605       3954585.623       5504581.263
10 0 59772  84960.000000  0      -1387678.804       3665140.440       5764710.441
10 0 59772  85020.000000  0      -1143565.878       3358172.157       6000440.358
10 0 59772  85080.000000  0       -897407.028       3034952.875       6210782.806
10 0 59772  85140.000000  0       -650373.709       2696831.874       6394857.030
10 0 59772  85200.000000  0       -403628.157       2345229.928       6551893.113
10 0 59772  85260.000000  0       -158318.000       1981633.305       6681235.015
10 0 59772  85320.000000  0         84429.037       1607587.386       6782343.108
10 0 59772  85380.000000  0        323510.238       1224690.067       6854796.164
10 0 59772  85440.000000  0        557852.820        834584.990       6898292.883
10 0 59772  85500.000000  0        786418.647        438954.593       6912653.010
10 0 59772  85560.000000  0       1008208.749         39512.969       6897818.033
10 0 59772  85620.000000  0       1222267.603       -362001.468       6853851.434
10 0 59772  85680.000000  0       1427687.206       -763833.498       6780938.432
10 0 59772  85740.000000  0       1623610.879      -1164218.653       6679385.189
10 0 59772  85800.000000  0       1809236.798      -1561390.814       6549617.667
10 0 59772  85860.000000  0       1983821.268      -1953589.954       6392180.034
10 0 59772  85920.000000  0       2146681.708      -2339069.904       6207732.541
10 0 59772  85980.000000  0       2297199.339      -2716106.078       5997048.961
10 0 59772  86040.000000  0       2434821.577      -3083003.209       5761013.571
10 0 59772  86100.000000  0       2559064.060      -3438102.990       5500617.621
10 0 59772  86160.000000  0       2669512.346      -3779791.590       5216955.426
10 0 59772  86220.000000  0       2765823.315      -4106507.070       4911220.048
10 0 59772  86280.000000  0       2847726.233      -4416746.680       4584698.541
10 0 59772  86340.000000  0       2915023.488      -4709073.969       4238766.678
99
